[{"OBJECT_NAME":"STARLINK-34538","OBJECT_ID":"2025-139AB","EPOCH":"2026-03-09T13:26:44.850912","MEAN_MOTION":15.30192052,"ECCENTRICITY":0.0001293,"INCLINATION":53.1593,"RA_OF_ASC_NODE":127.6799,"ARG_OF_PERICENTER":70.1434,"MEAN_ANOMALY":289.9706,"EPHEMERIS_TYPE":0,"CLASSIFICATION_TYPE":"U","NORAD_CAT_ID":64689,"ELEMENT_SET_NO":999,"REV_AT_EPOCH":4026,"BSTAR":0.0010448,"MEAN_MOTION_DOT":0.00030705,"MEAN_MOTION_DDOT":0},{"OBJECT_NAME":"KSLV-II R\/B","OBJECT_ID":"2023-072H","EPOCH":"2026-03-09T20:13:26.441760","MEAN_MOTION":15.33109439,"ECCENTRICITY":0.00241884,"INCLINATION":97.4991,"RA_OF_ASC_NODE":274.152,"ARG_OF_PERICENTER":318.2938,"MEAN_ANOMALY":41.646,"EPHEMERIS_TYPE":0,"CLASSIFICATION_TYPE":"U","NORAD_CAT_ID":56750,"ELEMENT_SET_NO":999,"REV_AT_EPOCH":15516,"BSTAR":0.00028309532,"MEAN_MOTION_DOT":9.057e-5,"MEAN_MOTION_DDOT":0}]
